#cP2018  6 25  0  0  0.00000000      96 ORBIT IGS14 HLM  IGS
## 2007  86400.00000000   900.00000000 58294 0.0000000000000
+   32   G01G02G03G04G05G06G07G08G09G10G11G12G13G14G15G16G17
+        G18G19G20G21G22G23G24G25G26G27G28G29G30G31G32  0  0
+          0  0  0  0  0  0  0  0  0  0  0  0  0  0  0  0  0
+          0  0  0  0  0  0  0  0  0  0  0  0  0  0  0  0  0
+          0  0  0  0  0  0  0  0  0  0  0  0  0  0  0  0  0
++         2  2  2  0  2  2  2  2  1  1  2  2  2  2  2  2  2
++         2  2  2  2  2  2  2  2  2  2  2  2  2  2  2  0  0
++         0  0  0  0  0  0  0  0  0  0  0  0  0  0  0  0  0
++         0  0  0  0  0  0  0  0  0  0  0  0  0  0  0  0  0
++         0  0  0  0  0  0  0  0  0  0  0  0  0  0  0  0  0
%c G  cc GPS ccc cccc cccc cccc cccc ccccc ccccc ccccc ccccc
%c cc cc ccc ccc cccc cccc cccc cccc ccccc ccccc ccccc ccccc
%f  1.2500000  1.025000000  0.00000000000  0.000000000000000
%f  0.0000000  0.000000000  0.00000000000  0.000000000000000
%i    0    0    0    0      0      0      0      0         0
%i    0    0    0    0      0      0      0      0         0
/* FINAL ORBIT COMBINATION FROM WEIGHTED AVERAGE OF:        
/* cod emr esa gfz grg jpl mit ngs sio                      
/* REFERENCED TO IGS TIME (IGST) AND TO WEIGHTED MEAN POLE: 
/* PCV:IGS14_2000 OL/AL:FES2004  NONE     Y  ORB:CMB CLK:CMB
*  2018  6 25  1 30  0.00000000
PG01  -5571.115620  17938.177626 -18807.015109    -59.461766  5  3  2  41       
PG02  21463.772735 -15386.048375   1581.261620     76.266234  7  8  4 108       
PG03   5041.065298  18109.032466 -18811.287608     94.925561  5  5  4  59       
PG04 -23767.275800  -6993.059817   9699.459756 999999.999999
PG05  15956.263239  -7482.554369  19828.512037     -5.619305  5  6  5  86       
PG06  23289.163418  -3927.325777 -12145.758877    393.174786  8  8  6 114       
PG07  11084.175372  11227.541492  21637.377933    169.738208  4  4  5  68       
PG08  -5844.839865  24256.033072   8921.953981   -105.948724  5  5  3 101       
PG09   8494.066092  22328.049313  11566.688069    514.473493  4  3  4  71       
PG10 -24161.809624 -10298.826695  -4448.310314    188.652968  6  6  6  93       
PG11  -5703.277639  23533.825649 -11655.634239   -732.677562  4  6  2  77       
PG12     -6.983527 -16647.058211 -20932.444704    325.220974  8  4  6  78       
PG13  12356.655451 -18313.417429  14634.709000    -93.161119  6  6  6 103       
PG14 -15135.227124   3917.867464 -21146.186205    -97.498890  6  5  8 106       
PG15   2808.788012 -25321.728036   6547.517885   -352.024558  6  4  6 102       
PG16 -16790.168661   4484.371519  20051.583414     20.208086  9  6  7 116       
PG17  13786.257056   7094.405506 -21198.096587    -84.865822  8  7  7  60       
PG18 -13272.952402  19282.260466 -12838.773798     25.725095  7  8  6  73       
PG19  15087.516498  -2731.750071 -22003.022737   -425.741695 10 10  8  74       
PG20 -21844.439913 -14110.204262   5502.712610    511.196314 10  7  7  95       
PG21 -14586.817679  -8813.236614  21168.936579   -376.741999  7  6  7 112       
PG22  -3856.624777  15653.363249 -20867.703653   -436.901751  4  5  5  72       
PG23   1108.702475  26292.253889   1032.095799   -215.433881  7  7  3  74       
PG24   8672.842896 -19293.093768 -16002.276267    -51.670869  8  4  4  91       
PG25 -14369.633205 -18516.228597 -12898.233719   -606.113997  7  5  7  53       
PG26 -22999.155444  -2024.641039  13236.175613   -104.758432  7  5  6 101       
PG27 -12101.971502  15078.638398  18008.140177    364.422846  5  4  5 124       
PG28  22193.098306  14395.716920  -1411.605848    726.307855  7  7  6  90       
PG29  -5193.532487 -24031.188463  10038.248334    426.462228  6  4  6  88       
PG30  19537.076245   4298.540563  17565.456900     58.497390  5  2  6  71       
PG31 -24206.843098   4878.403386 -10286.795086    112.255693  6  5  3 100       
PG32 -14818.347263  -6757.260417 -20955.118411   -487.972659  6  4  8 117       
*  2018  6 25  1 45  0.00000000
PG01  -7380.634313  18884.370234 -17145.368671    -59.465077  5  4  2  65       
PG02  21603.106146 -15114.308263  -1269.351808     76.256551  7  8  4 111       
PG03   3032.619937  17157.800912 -20086.281709     94.931370  5  4  3  71       
PG04 -24532.043615  -7630.917561   7041.720114 999999.999999
PG05  17874.702381  -6369.767151  18565.485596     -5.618642  5  7  5  76       
PG06  22092.189247  -2969.935354 -14430.433483    393.171953  8  8  6  88       
PG07   8990.888389  12481.927217  21881.424108    169.732329  3  4  5  77       
PG08  -6110.482897  23102.128658  11470.191179   -105.950330  5  5  3 103       
PG09   8300.127168  23524.290198   9072.715931    514.473285  4  4  4  85       
PG10 -24358.807487 -10676.088292  -1629.381162    188.653443  6  6  6  85       
PG11  -6610.226445  24289.042430  -9284.137241   -732.676086  4  7  2  78       
PG12   2047.337903 -15421.884246 -21745.997969    325.218407  8  5  6  81       
PG13  12364.561999 -16500.595391  16633.471274    -93.161033  5  6  6  94       
PG14 -15063.436429   1410.921265 -21520.705683    -97.498877  6  5  8  97       
PG15   3271.124932 -24430.588262   9156.229118   -352.023801  6  4  6 104       
PG16 -18623.209068   3215.264533  18675.573622     20.206956  9  6  7 117       
PG17  13680.817466   9540.848190 -20314.696811    -84.862715  8  7  7  51       
PG18 -14463.941224  19800.893420 -10437.126283     25.728881  7  8  6  97       
PG19  14936.560451   -274.718182 -22261.426246   -425.738844  9  9  8  73       
PG20 -20984.801544 -14114.462505   8139.559770    511.197013 10  7  7  77       
PG21 -12729.511178 -10167.926353  21776.892168   -376.737129  6  6  6 109       
PG22  -6104.070785  14645.664982 -21058.153855   -436.912713  3  5  5  86       
PG23    765.897227  26231.388254  -1812.785032   -215.433306  7  7  3  74       
PG24  10220.030723 -20062.678873 -13975.315306    -51.670538  8  4  4 100       
PG25 -12922.118465 -17904.871637 -15112.402992   -606.119255  7  4  6  82       
PG26 -24127.828740  -2844.254747  10879.215247   -104.747324  6  5  6 101       
PG27 -12300.904153  12917.783738  19507.529792    364.421293  4  4  4 120       
PG28  22142.591789  14588.516527   1496.222358    726.310582  6  7  6  74       
PG29  -4991.421801 -25022.390882   7372.717610    426.456249  7  4  7  76       
PG30  17778.853012   5441.501569  19039.428625     58.493302  4  2  6  70       
PG31 -23169.164280   4064.009887 -12697.806802    112.253296  6  4  4  97       
PG32 -14828.905755  -9112.379241 -20045.605930   -487.966292  6  5  8  98       
*  2018  6 25  2  0  0.00000000
PG01  -8971.609426  19809.656731 -15188.447247    -59.468380  4  4  2  69       
PG02  21504.802159 -14644.980402  -4097.654758     76.246739  7  8  4 108       
PG03    863.651245  16260.339275 -21016.812803     94.937161  4  4  3  81       
PG04 -25055.215414  -8086.638939   4263.825569 999999.999999
PG05  19697.176553  -5420.331490  16982.507257     -5.618329  5  7  5  90       
PG06  20748.684689  -1807.150950 -16466.596481    393.169175  8  8  5  87       
PG07   6957.044450  13850.685830  21756.800806    169.726681  2  4  5  79       
PG08  -6465.280654  21687.899889  13819.840571   -105.951897  4  5  4 105       
PG09   8137.351758  24439.083403   6422.312865    514.473081  4  4  4  64       
PG10 -24284.937382 -10908.967050   1217.330504    188.653767  6  5  5  85       
PG11  -7348.510177  24850.806904  -6757.644409   -732.675106  4  7  2  91       
PG12   4231.380957 -14281.190812 -22192.766305    325.216337  8  6  6  91       
PG13  12462.970436 -14479.256472  18343.775334    -93.160715  5  5  6 103       
PG14 -15120.225849  -1115.968158 -21514.148843    -97.498914  7  5  8  97       
PG15   3823.800350 -23277.407237  11602.528856   -352.023282  6  5  6 111       
PG16 -20369.956819   2139.904597  16978.516628     20.205692  8  6  7 120       
PG17  13704.543544  11864.147442 -19070.652684    -84.858854  7  6  6  76       
PG18 -15409.579978  20207.368512  -7857.687708     25.733147  7  8  5  94       
PG19  14923.543346   2196.495866 -22147.347516   -425.735996  9  9  8  72       
PG20 -19851.320439 -14067.406484  10636.419876    511.197733  9  7  6  89       
PG21 -10908.773490 -11644.918902  22035.769296   -376.732160  6  6  6 103       
PG22  -8395.948850  13741.418372 -20878.245645   -436.923873  2  5  5  85       
PG23    384.781002  25865.661373  -4625.521683   -215.432975  8  7  4  94       
PG24  11537.545372 -20758.820882 -11706.234370    -51.670613  7  5  4 111       
PG25 -11230.838690 -17275.081097 -17072.189329   -606.124535  7  3  6  77       
PG26 -25043.820742  -3493.038819   8336.260322   -104.736228  6  5  6 101       
PG27 -12630.719418  10621.478734  20666.411194    364.419774  4  4  4 121       
PG28  21820.220260  14617.167091   4378.356489    726.313384  6  7  6  80       
PG29  -4835.328572 -25713.545134   4580.275164    426.450235  7  3  7  91       
PG30  15953.723595   6750.169098  20187.672700     58.489215  4  2  5  80       
PG31 -21959.658027   3050.730466 -14894.429259    112.251067  7  3  5 100       
PG32 -14948.660784 -11340.923805 -18790.657093   -487.959932  6  5  8  94       
EOF
